IRIDIUM 144             
1 43249U 18030A   24335.91957540  .00000086  00000+0  23558-4 0  9991
2 43249  86.3983 165.8604 0001858  82.5984 277.5423 14.34218341349400
IRIDIUM 149             
1 43250U 18030B   24335.78638052  .00000213  00000+0  69017-4 0  9994
2 43250  86.3984 165.8895 0001852  90.1067 270.0341 14.34219286349402
IRIDIUM 157             
1 43251U 18030C   24335.80540823  .00000136  00000+0  41471-4 0  9994
2 43251  86.3987 165.9219 0002011  91.8515 268.2911 14.34218268349389
IRIDIUM 140             
1 43252U 18030D   24335.89420100  .00000004  00000+0 -57952-5 0  9996
2 43252  86.3993 165.8992 0001888  85.4267 274.7144 14.34216826349454
IRIDIUM 145             
1 43253U 18030E   24335.60244383  .00000230  00000+0  75141-4 0  9992
2 43253  86.3985 165.9939 0001636  82.5950 277.5432 14.34219641349343
IRIDIUM 146             
1 43254U 18030F   24335.79272023  .00000197  00000+0  63157-4 0  9991
2 43254  86.3988 165.9290 0001668  82.8002 277.3383 14.34217681349382
IRIDIUM 148             
1 43255U 18030G   24335.83078608  .00000278  00000+0  92117-4 0  9998
2 43255  86.3988 165.9474 0001800  91.3634 268.7768 14.34222358349424
